API VERSION: 1.2
API SOURCE: NASA/JPL Horizons API



*******************************************************************************
Ephemeris / API_USER Sat Jul 11 19:36:53 2026 Pasadena, USA      / Horizons    
*******************************************************************************
Target body name: 2060 Chiron (1977 UB)           {source: JPL#171}
Center body name: Earth (399)                     {source: DE441}
Center-site name: GEOCENTRIC
*******************************************************************************
Start time      : A.D. 1995-Jan-01 00:00:00.0000 UT      
Stop  time      : A.D. 2000-Jan-01 00:00:00.0000 UT      
Step-size       : 2880 minutes
*******************************************************************************
Target pole/equ : undefined
Target radii    : 83. km                                                       
Center geodetic : 0.0, 0.0, -6378.137             {E-lon(deg),Lat(deg),Alt(km)}
Center cylindric: 0.0, 0.0, 0.0                   {E-lon(deg),Dxy(km),Dz(km)}
Center pole/equ : ITRF93                          {East-longitude positive}
Center radii    : 6378.137, 6378.137, 6356.752 km {Equator_a, b, pole_c}       
Target primary  : Sun
Vis. interferer : MOON (R_eq= 1737.400) km        {source: DE441}
Rel. light bend : Sun                             {source: DE441}
Rel. lght bnd GM: 1.3271E+11 km^3/s^2                                          
Small-body perts: Yes                             {source: SB441-N16}
Atmos refraction: NO (AIRLESS)
RA format       : DEG
Time format     : CAL 
Calendar mode   : Mixed Julian/Gregorian
EOP file        : eop.260710.p261006                                           
EOP coverage    : DATA-BASED 1962-JAN-20 TO 2026-JUL-10. PREDICTS-> 2026-OCT-05
Units conversion: 1 au= 149597870.700 km, c= 299792.458 km/s, 1 day= 86400.0 s 
Table cut-offs 1: Elevation (-90.0deg=NO ),Airmass (>38.000=NO), Daylight (NO )
Table cut-offs 2: Solar elongation (  0.0,180.0=NO ),Local Hour Angle( 0.0=NO )
Table cut-offs 3: RA/DEC angular rate (     0.0=NO )                           
*******************************************************************************
Initial IAU76/J2000 heliocentric ecliptic osculating elements (au, days, deg.):
  EPOCH=  2457916.5 ! 2017-Jun-12.00 (TDB)         Residual RMS= .19933        
   EC= .3824171374703196   QR= 8.427522999110739   TP= 2450143.7110841358      
   OM= 209.2011323125998   W=  339.6529896907077   IN= 6.94959060447848        
  Equivalent ICRF heliocentric cartesian coordinates (au, au/d):
   X= 1.843374627977423E+01  Y=-1.877818593473934E+00  Z= 5.548833989583914E-01
  VX= 7.316266023833624E-04 VY= 2.960187278972600E-03 VZ= 9.710586201315230E-04
Asteroid physical parameters (km, seconds, rotational period in hours):        
   GM= n.a.                RAD= 83.                ROTPER= 5.918               
   H= 5.54                 G= .150                 B-V= .704                   
                           ALBEDO= .150            STYP= Cb                    
*******************************************************************************
 Date__(UT)__HR:MN        ObsEcLon    ObsEcLat
**********************************************
$$SOE
 1998-Dec-11 00:00     236.7757349   2.6934914
 1998-Dec-13 00:00     237.0288482   2.7049700
 1998-Dec-15 00:00     237.2797711   2.7167187
 1998-Dec-17 00:00     237.5283515   2.7287386
 1998-Dec-19 00:00     237.7744173   2.7410304
 1998-Dec-21 00:00     238.0177756   2.7535951
 1998-Dec-23 00:00     238.2582243   2.7664339
 1998-Dec-25 00:00     238.4955775   2.7795476
 1998-Dec-27 00:00     238.7296890   2.7929374
 1998-Dec-29 00:00     238.9604523   2.8066037
 1998-Dec-31 00:00     239.1877647   2.8205468
 1999-Jan-02 00:00     239.4114779   2.8347660
 1999-Jan-04 00:00     239.6313961   2.8492600
 1999-Jan-06 00:00     239.8473417   2.8640271
 1999-Jan-08 00:00     240.0591743   2.8790653
 1999-Jan-10 00:00     240.2667686   2.8943725
 1999-Jan-12 00:00     240.4699915   2.9099466
 1999-Jan-14 00:00     240.6686939   2.9257856
 1999-Jan-16 00:00     240.8627076   2.9418870
 1999-Jan-18 00:00     241.0518463   2.9582486
 1999-Jan-20 00:00     241.2359218   2.9748678
 1999-Jan-22 00:00     241.4147746   2.9917420
 1999-Jan-24 00:00     241.5882947   3.0088679
 1999-Jan-26 00:00     241.7564024   3.0262418
 1999-Jan-28 00:00     241.9190016   3.0438591
 1999-Jan-30 00:00     242.0759525   3.0617142
 1999-Feb-01 00:00     242.2270937   3.0798009
 1999-Feb-03 00:00     242.3722884   3.0981124
 1999-Feb-05 00:00     242.5114364   3.1166414
 1999-Feb-07 00:00     242.6444489   3.1353806
 1999-Feb-09 00:00     242.7712274   3.1543222
 1999-Feb-11 00:00     242.8916580   3.1734584
 1999-Feb-13 00:00     243.0056116   3.1927808
 1999-Feb-15 00:00     243.1129482   3.2122808
 1999-Feb-17 00:00     243.2135349   3.2319495
 1999-Feb-19 00:00     243.3072818   3.2517774
 1999-Feb-21 00:00     243.3941562   3.2717542
 1999-Feb-23 00:00     243.4741440   3.2918688
 1999-Feb-25 00:00     243.5471994   3.3121090
 1999-Feb-27 00:00     243.6132436   3.3324615
 1999-Mar-01 00:00     243.6722011   3.3529125
 1999-Mar-03 00:00     243.7240303   3.3734475
 1999-Mar-05 00:00     243.7687220   3.3940515
 1999-Mar-07 00:00     243.8062759   3.4147093
 1999-Mar-09 00:00     243.8366823   3.4354054
 1999-Mar-11 00:00     243.8599199   3.4561238
 1999-Mar-13 00:00     243.8759589   3.4768482
 1999-Mar-15 00:00     243.8847686   3.4975620
 1999-Mar-17 00:00     243.8863377   3.5182481
 1999-Mar-19 00:00     243.8807099   3.5388889
 1999-Mar-21 00:00     243.8679907   3.5594662
 1999-Mar-23 00:00     243.8482902   3.5799607
 1999-Mar-25 00:00     243.8216769   3.6003524
 1999-Mar-27 00:00     243.7882022   3.6206208
 1999-Mar-29 00:00     243.7479431   3.6407450
 1999-Mar-31 00:00     243.7010158   3.6607039
 1999-Apr-02 00:00     243.6475620   3.6804766
 1999-Apr-04 00:00     243.5877284   3.7000420
 1999-Apr-06 00:00     243.5216529   3.7193794
 1999-Apr-08 00:00     243.4494646   3.7384681
 1999-Apr-10 00:00     243.3712897   3.7572876
 1999-Apr-12 00:00     243.2872631   3.7758173
 1999-Apr-14 00:00     243.1975488   3.7940372
 1999-Apr-16 00:00     243.1023713   3.8119271
 1999-Apr-18 00:00     243.0020109   3.8294670
 1999-Apr-20 00:00     242.8967349   3.8466365
 1999-Apr-22 00:00     242.7867594   3.8634158
 1999-Apr-24 00:00     242.6722975   3.8797851
 1999-Apr-26 00:00     242.5536006   3.8957256
 1999-Apr-28 00:00     242.4309532   3.9112194
 1999-Apr-30 00:00     242.3046529   3.9262494
 1999-May-02 00:00     242.1749916   3.9407996
 1999-May-04 00:00     242.0422476   3.9548551
 1999-May-06 00:00     241.9066857   3.9684021
 1999-May-08 00:00     241.7685677   3.9814277
 1999-May-10 00:00     241.6281655   3.9939203
 1999-May-12 00:00     241.4857827   4.0058692
 1999-May-14 00:00     241.3417753   4.0172647
 1999-May-16 00:00     241.1965346   4.0280981
 1999-May-18 00:00     241.0504142   4.0383614
 1999-May-20 00:00     240.9037066   4.0480479
 1999-May-22 00:00     240.7567072   4.0571518
 1999-May-24 00:00     240.6097483   4.0656694
 1999-May-26 00:00     240.4631800   4.0735982
 1999-May-28 00:00     240.3173448   4.0809373
 1999-May-30 00:00     240.1725647   4.0876875
 1999-Jun-01 00:00     240.0291365   4.0938506
 1999-Jun-03 00:00     239.8873349   4.0994303
 1999-Jun-05 00:00     239.7474253   4.1044312
 1999-Jun-07 00:00     239.6096816   4.1088594
 1999-Jun-09 00:00     239.4744058   4.1127218
 1999-Jun-11 00:00     239.3419359   4.1160266
 1999-Jun-13 00:00     239.2126157   4.1187825
 1999-Jun-15 00:00     239.0867301   4.1209991
 1999-Jun-17 00:00     238.9645000   4.1226868
 1999-Jun-19 00:00     238.8461526   4.1238573
 1999-Jun-21 00:00     238.7319468   4.1245232
 1999-Jun-23 00:00     238.6221430   4.1246984
 1999-Jun-25 00:00     238.5169780   4.1243975
 1999-Jun-27 00:00     238.4166574   4.1236363
 1999-Jun-29 00:00     238.3213550   4.1224311
 1999-Jul-01 00:00     238.2312194   4.1207989
 1999-Jul-03 00:00     238.1463894   4.1187573
 1999-Jul-05 00:00     238.0670164   4.1163242
 1999-Jul-07 00:00     237.9932801   4.1135178
 1999-Jul-09 00:00     237.9253812   4.1103563
 1999-Jul-11 00:00     237.8635015   4.1068580
 1999-Jul-13 00:00     237.8077564   4.1030411
 1999-Jul-15 00:00     237.7582110   4.0989237
 1999-Jul-17 00:00     237.7149458   4.0945241
 1999-Jul-19 00:00     237.6780701   4.0898612
 1999-Jul-21 00:00     237.6476865   4.0849538
 1999-Jul-23 00:00     237.6238686   4.0798211
 1999-Jul-25 00:00     237.6066582   4.0744821
 1999-Jul-27 00:00     237.5960685   4.0689558
 1999-Jul-29 00:00     237.5920923   4.0632612
 1999-Jul-31 00:00     237.5947217   4.0574169
 1999-Aug-02 00:00     237.6039722   4.0514414
 1999-Aug-04 00:00     237.6198920   4.0453525
 1999-Aug-06 00:00     237.6425376   4.0391676
 1999-Aug-08 00:00     237.6719291   4.0329034
 1999-Aug-10 00:00     237.7080276   4.0265761
 1999-Aug-12 00:00     237.7507689   4.0202014
 1999-Aug-14 00:00     237.8001149   4.0137948
 1999-Aug-16 00:00     237.8560534   4.0073719
 1999-Aug-18 00:00     237.9185625   4.0009477
 1999-Aug-20 00:00     237.9875914   3.9945374
 1999-Aug-22 00:00     238.0630619   3.9881558
 1999-Aug-24 00:00     238.1448746   3.9818173
 1999-Aug-26 00:00     238.2329189   3.9755360
 1999-Aug-28 00:00     238.3270940   3.9693256
 1999-Aug-30 00:00     238.4273342   3.9631991
 1999-Sep-01 00:00     238.5336088   3.9571691
 1999-Sep-03 00:00     238.6458802   3.9512474
 1999-Sep-05 00:00     238.7640618   3.9454451
 1999-Sep-07 00:00     238.8880245   3.9397728
 1999-Sep-09 00:00     239.0176399   3.9342406
 1999-Sep-11 00:00     239.1528119   3.9288587
 1999-Sep-13 00:00     239.2934632   3.9236369
 1999-Sep-15 00:00     239.4395035   3.9185852
 1999-Sep-17 00:00     239.5908147   3.9137131
 1999-Sep-19 00:00     239.7472560   3.9090301
 1999-Sep-21 00:00     239.9086726   3.9045454
 1999-Sep-23 00:00     240.0749068   3.9002678
